NORAD_CAT_ID,OBJECT_NAME,OBJECT_TYPE,EPOCH,MEAN_MOTION,ECCENTRICITY,INCLINATION,RA_OF_ASC_NODE,ARG_OF_PERICENTER,MEAN_ANOMALY,BSTAR,MEAN_MOTION_DOT,MEAN_MOTION_DDOT,TLE_LINE0,TLE_LINE1,TLE_LINE2,SEMIMAJOR_AXIS,PERIOD,APOGEE,PERIGEE,DECAYED
53984.0,STARLINK-5142,PAYLOAD,2023-07-25 09:59:34,15.08839202,9.88e-05,53.2155,196.1316,80.8676,279.2428,6.7154e-05,7.81e-06,0.0,0 STARLINK-5142,1 53984U 22125W   23206.41636817  .00000781  00000-0  67154-4 0  9993,2 53984  53.2155 196.1316 0000988  80.8676 279.2428 15.08839202 44795,6917.883,95.438,540.431,539.064,0.0
53984.0,STARLINK-5142,PAYLOAD,2023-07-26 00:18:02,15.08838674,0.0001062,53.2138,193.4559,84.8969,275.2144,9.3481e-05,1.2e-05,0.0,0 STARLINK-5142,1 53984U 22125W   23207.01252922  .00001200  00000-0  93481-4 0  9990,2 53984  53.2138 193.4559 0001062  84.8969 275.2144 15.08838674 44881,6917.884,95.438,540.484,539.015,0.0
53984.0,STARLINK-5142,PAYLOAD,2023-07-26 06:39:34,15.08842408,0.0001051,53.2155,192.2657,85.3573,274.7539,0.00012067,1.633e-05,0.0,0 STARLINK-5142,1 53984U 22125W   23207.27748669  .00001633  00000-0  12067-3 0  9996,2 53984  53.2155 192.2657 0001051  85.3573 274.7539 15.08842408 44928,6917.873,95.437,540.465,539.011,0.0
53984.0,STARLINK-5142,PAYLOAD,2023-07-27 00:08:49,15.08842706,0.0001093,53.2158,188.9946,82.7683,277.3434,0.00010054,1.313e-05,0.0,0 STARLINK-5142,1 53984U 22125W   23208.00612684  .00001313  00000-0  10054-3 0  9994,2 53984  53.2158 188.9946 0001093  82.7683 277.3434 15.08842706 45108,6917.872,95.437,540.493,538.981,0.0
53984.0,STARLINK-5142,PAYLOAD,2023-07-27 08:05:44,15.08847392,0.0001139,53.2162,187.5083,85.6081,274.5041,0.00012767,1.745e-05,0.0,0 STARLINK-5142,1 53984U 22125W   23208.33732276  .00001745  00000-0  12767-3 0  9992,2 53984  53.2162 187.5083 0001139  85.6081 274.5041 15.08847392 45081,6917.858,95.437,540.511,538.935,0.0
53984.0,STARLINK-5142,PAYLOAD,2023-07-27 16:02:41,15.08837278,0.0001232,53.2153,186.0209,91.3129,268.8004,3.7105e-05,3.03e-06,0.0,0 STARLINK-5142,1 53984U 22125W   23208.66853105  .00000303  00000-0  37105-4 0  9996,2 53984  53.2153 186.0209 0001232  91.3129 268.8004 15.08837278 45207,6917.889,95.438,540.606,538.901,0.0
53984.0,STARLINK-5142,PAYLOAD,2023-07-28 07:56:32,15.08835549,0.0001273,53.216,183.0472,90.7949,269.3189,-9.8659e-06,-4.45e-06,0.0,0 STARLINK-5142,1 53984U 22125W   23209.33093430 -.00000445  00000-0 -98659-5 0  9999,2 53984  53.2160 183.0472 0001273  90.7949 269.3189 15.08835549 45234,6917.894,95.438,540.64,538.878,0.0
53984.0,STARLINK-5142,PAYLOAD,2023-07-29 03:01:09,15.08853222,0.0001476,53.216,179.4786,71.7333,288.382,-0.00014127,-2.536e-05,0.0,0 STARLINK-5142,1 53984U 22125W   23210.12580901 -.00002536  00000-0 -14127-3 0  9991,2 53984  53.2160 179.4786 0001476  71.7333 288.3820 15.08853222 45424,6917.84,95.437,540.726,538.684,0.0
53984.0,STARLINK-5142,PAYLOAD,2023-07-30 02:51:57,15.08839971,0.0001151,53.2158,175.019,95.1458,264.9665,0.00014831,2.073e-05,0.0,0 STARLINK-5142,1 53984U 22125W   23211.11941063  .00002073  00000-0  14831-3 0  9997,2 53984  53.2158 175.0190 0001151  95.1458 264.9665 15.08839971 45578,6917.88,95.438,540.542,538.949,0.0
53984.0,STARLINK-5142,PAYLOAD,2023-07-31 02:42:44,15.08836069,0.0001167,53.2164,170.5572,99.9914,260.121,4.7138e-05,4.62e-06,0.0,0 STARLINK-5142,1 53984U 22125W   23212.11301732  .00000462  00000-0  47138-4 0  9998,2 53984  53.2164 170.5572 0001167  99.9914 260.1210 15.08836069 45721,6917.892,95.438,540.565,538.95,0.0
53984.0,STARLINK-5142,PAYLOAD,2023-07-31 07:28:53,15.08843595,0.0001077,53.2163,169.6667,97.7093,262.4021,7.7815e-05,9.51e-06,0.0,0 STARLINK-5142,1 53984U 22125W   23212.31173235  .00000951  00000-0  77815-4 0  9993,2 53984  53.2163 169.6667 0001077  97.7093 262.4021 15.08843595 45758,6917.869,95.437,540.479,538.989,0.0
53984.0,STARLINK-5142,PAYLOAD,2023-08-01 02:33:32,15.0883544,0.0001077,53.2171,166.0987,92.8251,267.2865,-5.5933e-06,-3.77e-06,0.0,0 STARLINK-5142,1 53984U 22125W   23213.10662157 -.00000377  00000-0 -55933-5 0  9999,2 53984  53.2171 166.0987 0001077  92.8251 267.2865 15.08835440 45877,6917.894,95.438,540.504,539.014,0.0
53984.0,STARLINK-5142,PAYLOAD,2023-08-02 05:35:04,15.08845839,0.0001065,53.2166,161.0437,101.6028,258.5083,9.5371e-05,1.231e-05,0.0,0 STARLINK-5142,1 53984U 22125W   23214.23269569  .00001231  00000-0  95371-4 0  9991,2 53984  53.2166 161.0437 0001065 101.6028 258.5083 15.08845839 46042,6917.863,95.437,540.464,538.991,0.0
53984.0,STARLINK-5142,PAYLOAD,2023-08-04 02:05:53,15.08836105,0.0001471,53.2167,152.715,118.5745,241.5395,-2.5689e-05,-6.97e-06,0.0,0 STARLINK-5142,1 53984U 22125W   23216.08742367 -.00000697  00000-0 -25689-4 0  9990,2 53984  53.2167 152.7150 0001471 118.5745 241.5395 15.08836105 46321,6917.892,95.438,540.775,538.74,0.0
53984.0,STARLINK-5142,PAYLOAD,2023-08-05 01:56:39,15.08854865,0.0001288,53.2161,148.2562,80.0815,280.0322,0.00025926,3.842e-05,0.0,0 STARLINK-5142,1 53984U 22125W   23217.08101734  .00003842  00000-0  25926-3 0  9994,2 53984  53.2161 148.2562 0001288  80.0815 280.0322 15.08854865 46476,6917.835,95.437,540.591,538.809,0.0
53984.0,STARLINK-5142,PAYLOAD,2023-08-06 04:58:12,15.08860786,0.000113,53.2154,143.2006,97.0395,263.0725,0.0003215,4.835e-05,0.0,0 STARLINK-5142,1 53984U 22125W   23218.20708773  .00004835  00000-0  32150-3 0  9995,2 53984  53.2154 143.2006 0001130  97.0395 263.0725 15.08860786 46649,6917.817,95.436,540.464,538.9,0.0
53984.0,STARLINK-5142,PAYLOAD,2023-08-06 19:16:41,15.08830938,0.0001569,53.2162,140.5249,86.5305,273.5866,-0.00035278,-5.897e-05,0.0,0 STARLINK-5142,1 53984U 22125W   23218.80326046 -.00005897  00000-0 -35278-3 0  9995,2 53984  53.2162 140.5249 0001569  86.5305 273.5866 15.08830938 46735,6917.908,95.438,540.859,538.688,0.0
53984.0,STARLINK-5142,PAYLOAD,2023-08-07 01:38:14,15.08821228,0.0001292,53.2165,139.3369,75.6282,284.4853,-0.00042434,-7.031e-05,0.0,0 STARLINK-5142,1 53984U 22125W   23219.06822674 -.00007031  00000-0 -42434-3 0  9996,2 53984  53.2165 139.3369 0001292  75.6282 284.4853 15.08821228 46776,6917.938,95.439,540.697,538.909,0.0
53984.0,STARLINK-5142,PAYLOAD,2023-08-07 19:07:29,15.08832443,0.0001098,53.2161,136.0646,78.4214,281.6902,0.00011741,1.581e-05,0.0,0 STARLINK-5142,1 53984U 22125W   23219.79687217  .00001581  00000-0  11741-3 0  9997,2 53984  53.2161 136.0646 0001098  78.4214 281.6902 15.08832443 46881,6917.903,95.438,540.528,539.009,0.0
53984.0,STARLINK-5142,PAYLOAD,2023-08-08 04:39:48,15.08852203,0.0001184,53.2162,134.2808,75.6788,284.4336,0.0010933,0.0001716,0.0,0 STARLINK-5142,1 53984U 22125W   23220.19431329  .00017160  00000-0  10933-2 0  9995,2 53984  53.2162 134.2808 0001184  75.6788 284.4336 15.08852203 46948,6917.843,95.437,540.527,538.889,0.0
53984.0,STARLINK-5142,PAYLOAD,2023-08-08 17:22:53,15.08851139,0.0001248,53.2159,131.9018,76.8736,283.2395,0.00032966,4.964e-05,0.0,0 STARLINK-5142,1 53984U 22125W   23220.72423079  .00004964  00000-0  32966-3 0  9996,2 53984  53.2159 131.9018 0001248  76.8736 283.2395 15.08851139 47027,6917.846,95.437,540.575,538.848,0.0
53984.0,STARLINK-5142,PAYLOAD,2023-08-09 02:55:11,15.08870848,0.0001216,53.2153,130.1177,85.1791,274.934,0.00078816,0.00012288,0.0,0 STARLINK-5142,1 53984U 22125W   23221.12166197  .00012288  00000-0  78816-3 0  9998,2 53984  53.2153 130.1177 0001216  85.1791 274.9340 15.08870848 47088,6917.786,95.436,540.492,538.81,0.0
53984.0,STARLINK-5142,PAYLOAD,2023-08-09 10:52:07,15.08854182,0.0001124,53.2155,128.6288,93.2429,266.8692,0.00012777,1.747e-05,0.0,0 STARLINK-5142,1 53984U 22125W   23221.45286061  .00001747  00000-0  12777-3 0  9999,2 53984  53.2155 128.6288 0001124  93.2429 266.8692 15.08854182 47130,6917.837,95.437,540.48,538.924,0.0
53984.0,STARLINK-5142,PAYLOAD,2023-08-10 02:45:58,15.08841261,0.0001329,53.2158,125.6566,94.838,265.2764,3.6561e-05,2.94e-06,0.0,0 STARLINK-5142,1 53984U 22125W   23222.11526320  .00000294  00000-0  36561-4 0  9992,2 53984  53.2158 125.6566 0001329  94.8380 265.2764 15.08841261 47237,6917.877,95.437,540.661,538.822,0.0
53984.0,STARLINK-5142,PAYLOAD,2023-08-11 16:55:14,15.08838709,0.0001364,53.2104,118.5216,91.6365,268.4783,0.00018193,2.609e-05,0.0,0 STARLINK-5142,1 53984U 22125W   23223.70502999  .00002609  00000-0  18193-3 0  9996,2 53984  53.2104 118.5216 0001364  91.6365 268.4783 15.08838709 47473,6917.884,95.438,540.693,538.806,0.0
53984.0,STARLINK-5142,PAYLOAD,2023-08-12 18:21:24,15.08839866,0.0001162,53.2145,113.7631,93.6452,266.4673,0.00019091,2.752e-05,0.0,0 STARLINK-5142,1 53984U 22125W   23224.76487243  .00002752  00000-0  19091-3 0  9994,2 53984  53.2145 113.7631 0001162  93.6452 266.4673 15.08839866 47630,6917.881,95.438,540.55,538.942,0.0
53984.0,STARLINK-5142,PAYLOAD,2023-08-14 02:09:07,15.08844361,0.0001118,53.2152,107.8158,87.6516,272.4604,0.00013881,1.922e-05,0.0,0 STARLINK-5142,1 53984U 22125W   23226.08967086  .00001922  00000-0  13881-3 0  9998,2 53984  53.2152 107.8158 0001118  87.6516 272.4604 15.08844361 47830,6917.867,95.437,540.505,538.959,0.0
53984.0,STARLINK-5142,PAYLOAD,2023-08-15 16:18:22,15.08838677,0.000131,53.2172,100.6781,87.9842,272.13,1.467e-05,-5.4e-07,0.0,0 STARLINK-5142,1 53984U 22125W   23227.67943279 -.00000054  00000-0  14670-4 0  9996,2 53984  53.2172 100.6781 0001310  87.9842 272.1300 15.08838677 48074,6917.884,95.438,540.656,538.843,0.0
53984.0,STARLINK-5142,PAYLOAD,2023-08-17 00:06:06,15.08832137,0.0001346,53.2152,94.7319,88.9928,271.1218,0.00024292,3.579e-05,0.0,0 STARLINK-5142,1 53984U 22125W   23229.00423657  .00003579  00000-0  24292-3 0  9992,2 53984  53.2152  94.7319 0001346  88.9928 271.1218 15.08832137 48271,6917.904,95.438,540.701,538.838,0.0
53984.0,STARLINK-5142,PAYLOAD,2023-08-17 23:56:52,15.08844767,0.0001421,53.2137,90.2712,85.2737,274.8417,0.00014899,2.084e-05,0.0,0 STARLINK-5142,1 53984U 22125W   23229.99783137  .00002084  00000-0  14899-3 0  9994,2 53984  53.2137  90.2712 0001421  85.2737 274.8417 15.08844767 48424,6917.866,95.437,540.714,538.748,0.0
